NORAD_CAT_ID,OBJECT_NAME,OBJECT_TYPE,EPOCH,MEAN_MOTION,ECCENTRICITY,INCLINATION,RA_OF_ASC_NODE,ARG_OF_PERICENTER,MEAN_ANOMALY,BSTAR,MEAN_MOTION_DOT,MEAN_MOTION_DDOT,TLE_LINE0,TLE_LINE1,TLE_LINE2,SEMIMAJOR_AXIS,PERIOD,APOGEE,PERIGEE,DECAYED
52661.0,STARLINK-4042,PAYLOAD,2022-06-01 04:00:00,15.73207284,0.0001892,53.215,229.8784,28.6439,217.2694,0.00058649,0.00082531,0.0,0 STARLINK-4042,1 52661U 22053F   22152.16667824  .00082531  00000-0  58649-3 0  9998,2 52661  53.2150 229.8784 0001892  28.6439 217.2694 15.73207284  2912,6727.874,91.533,351.01199999999994,348.466,0.0
52661.0,STARLINK-4042,PAYLOAD,2022-06-01 12:06:25,15.73297338,0.0002053,53.2151,228.2073,44.2606,315.8579,0.00032474,0.00045394,0.0,0 STARLINK-4042,1 52661U 22053F   22152.50445841  .00045394  00000-0  32474-3 0  9993,2 52661  53.2151 228.2073 0002053  44.2606 315.8579 15.73297338  2979,6727.618,91.528,350.86400000000015,348.101,0.0
52661.0,STARLINK-4042,PAYLOAD,2022-06-01 20:00:01,15.73335107,0.0002088,53.2148,226.5808,18.6392,45.2294,-0.0011331,-0.0015763,0.0,0 STARLINK-4042,1 52661U 22053F   22152.83334491 -.00157630  00000-0 -11331-2 0  9994,2 52661  53.2148 226.5808 0002088  18.6392  45.2294 15.73335107  3029,6727.51,91.525,350.78,347.97,0.0
52661.0,STARLINK-4042,PAYLOAD,2022-06-02 20:07:30,15.73210908,0.0001262,53.2147,221.6049,22.5592,337.5483,9.2443e-05,0.00012379,0.0,0 STARLINK-4042,1 52661U 22053F   22153.83854972  .00012379  00000-0  92443-4 0  9999,2 52661  53.2147 221.6049 0001262  22.5592 337.5483 15.73210908  3185,6727.864000000001,91.533,350.57800000000015,348.88,0.0
52661.0,STARLINK-4042,PAYLOAD,2022-06-03 09:50:49,15.732428400000002,0.0002751,53.215,218.7764,21.2135,338.8999,0.00028312,0.00039377,0.0,0 STARLINK-4042,1 52661U 22053F   22154.41029939  .00039377  00000-0  28312-3 0  9991,2 52661  53.2150 218.7764 0002751  21.2135 338.8999 15.73242840  3279,6727.773,91.531,351.48900000000015,347.787,0.0
52661.0,STARLINK-4042,PAYLOAD,2022-06-03 18:59:42,15.7322674,0.000202,53.215,216.8903,34.4134,325.7016,8.039100000000001e-05,0.00010689,0.0,0 STARLINK-4042,1 52661U 22053F   22154.79146534  .00010689  00000-0  80391-4 0  9994,2 52661  53.2150 216.8903 0002020  34.4134 325.7016 15.73226740  3330,6727.819,91.532,351.043,348.325,0.0
52661.0,STARLINK-4042,PAYLOAD,2022-06-04 10:14:30,15.73236116,0.0002811,53.2153,213.7476,30.1388,329.9793,0.00016136,0.00022122,0.0,0 STARLINK-4042,1 52661U 22053F   22155.42673975  .00022122  00000-0  16136-3 0  9999,2 52661  53.2153 213.7476 0002811  30.1388 329.9793 15.73236116  3433,6727.792,91.531,351.548,347.766,0.0
52661.0,STARLINK-4042,PAYLOAD,2022-06-05 20:00:01,15.71191204,0.0002566999999999,53.2172,206.7922,317.719,88.2798,-0.0061376,-0.00726537,0.0,0 STARLINK-4042,1 52661U 22053F   22156.83334491 -.00726537  00000-0 -61376-2 0  9990,2 52661  53.2172 206.7922 0002567 317.7190  88.2798 15.71191204  3655,6733.628000000002,91.65,357.222,353.765,0.0
52661.0,STARLINK-4042,PAYLOAD,2022-06-05 22:00:00,15.71061909,0.0002306,53.2174,206.3801,329.6492,187.9579,-0.0061562,-0.00724834,0.0,0 STARLINK-4042,1 52661U 22053F   22156.91667824 -.00724834  00000-0 -61562-2 0  9993,2 52661  53.2174 206.3801 0002306 329.6492 187.9579 15.71061909  1309,6733.998000000001,91.658,357.416,354.31,0.0
52661.0,STARLINK-4042,PAYLOAD,2022-06-06 14:00:01,15.7002762,0.0003543,53.2175,203.0932,259.7841,69.3018,-0.0061737,-0.00698487,0.0,0 STARLINK-4042,1 52661U 22053F   22157.58334491 -.00698487  00000-0 -61737-2 0  9996,2 52661  53.2175 203.0932 0003543 259.7841  69.3018 15.70027620  1306,6736.955,91.718,361.207,356.43300000000005,0.0
52661.0,STARLINK-4042,PAYLOAD,2022-06-06 22:00:00,15.69531018,0.0001274,53.2175,201.4486,312.3012,101.5998,-0.0065343999999999,-0.00721459,0.0,0 STARLINK-4042,1 52661U 22053F   22157.91667824 -.00721459  00000-0 -65344-2 0  9996,2 52661  53.2175 201.4486 0001274 312.3012 101.5998 15.69531018  3821,6738.376,91.747,361.099,359.3830000000001,0.0
52661.0,STARLINK-4042,PAYLOAD,2022-06-07 14:00:01,15.68504709,0.0001238,53.2172,198.1692,66.2756,155.4251,-0.0067077,-0.00710614,0.0,0 STARLINK-4042,1 52661U 22053F   22158.58334491 -.00710614  00000-0 -67077-2 0  9997,2 52661  53.2172 198.1692 0001238  66.2756 155.4251 15.68504709  1306,6741.315,91.807,364.015,362.345,0.0
52661.0,STARLINK-4042,PAYLOAD,2022-06-07 20:00:01,15.68127756,0.0001305,53.2174,196.9383,60.3306,133.7272,-0.006912,-0.00720127,0.0,0 STARLINK-4042,1 52661U 22053F   22158.83335648 -.00720127  00000-0 -69120-2 0  9991,2 52661  53.2174 196.9383 0001305  60.3306 133.7272 15.68127756  3961,6742.395,91.829,365.14,363.38,0.0
52661.0,STARLINK-4042,PAYLOAD,2022-06-07 22:00:00,15.67997209,0.000113,53.2174,196.5285,63.6498,241.0316,-0.0068973,-0.00715139,0.0,0 STARLINK-4042,1 52661U 22053F   22158.91667824 -.00715139  00000-0 -68973-2 0  9996,2 52661  53.2174 196.5285 0001130  63.6498 241.0316 15.67997209  1307,6742.77,91.837,365.396,363.87300000000016,0.0
52661.0,STARLINK-4042,PAYLOAD,2022-06-08 14:00:01,15.66976523,0.0001154,53.2172,193.2565,63.6227,45.1795,-0.0071696,-0.00713099,0.0,0 STARLINK-4042,1 52661U 22053F   22159.58334491 -.00713099  00000-0 -71696-2 0  9990,2 52661  53.2172 193.2565 0001154  63.6227  45.1795 15.66976523  1305,6745.696999999999,91.897,368.341,366.784,0.0
52661.0,STARLINK-4042,PAYLOAD,2022-06-08 20:00:01,15.66595557,0.0001211,53.2176,192.0285,53.2683,26.4481,-0.007311,-0.00715744,0.0,0 STARLINK-4042,1 52661U 22053F   22159.83334491 -.00715744  00000-0 -73110-2 0  9990,2 52661  53.2176 192.0285 0001211  53.2683  26.4481 15.66595557  4121,6746.791,91.919,369.473,367.839,0.0
52661.0,STARLINK-4042,PAYLOAD,2022-06-08 22:00:01,15.6646668,0.0001281999999999,53.2175,191.6192,59.5596,130.4509,-0.0073209999999999,-0.00713215,0.0,0 STARLINK-4042,1 52661U 22053F   22159.91668981 -.00713215  00000-0 -73210-2 0  9995,2 52661  53.2175 191.6192 0001282  59.5596 130.4509 15.66466680  1300,6747.161,91.927,369.891,368.161,0.0
52661.0,STARLINK-4042,PAYLOAD,2022-06-09 14:00:01,15.65448308,0.0001047,53.2172,188.3549,66.8169,283.5714,-0.0076489999999999,-0.0071489999999999,0.0,0 STARLINK-4042,1 52661U 22053F   22160.58334491 -.00714900  00000-0 -76490-2 0  9991,2 52661  53.2172 188.3549 0001047  66.8169 283.5714 15.65448308  1306,6750.087,91.986,372.658,371.245,0.0
52661.0,STARLINK-4042,PAYLOAD,2022-06-09 20:00:01,15.65066982,0.0001169,53.2175,187.1296,60.713,259.2113,-0.0078033999999999,-0.00717985,0.0,0 STARLINK-4042,1 52661U 22053F   22160.83334491 -.00717985  00000-0 -78034-2 0  9991,2 52661  53.2175 187.1296 0001169  60.7130 259.2113 15.65066982  4277,6751.183000000001,92.009,373.837,372.259,0.0
52661.0,STARLINK-4042,PAYLOAD,2022-06-09 22:00:00,15.64936875,0.0001172,53.2173,186.7215,53.4207,16.2732,-0.0077936,-0.00713726,0.0,0 STARLINK-4042,1 52661U 22053F   22160.91667824 -.00713726  00000-0 -77936-2 0  9998,2 52661  53.2173 186.7215 0001172  53.4207  16.2732 15.64936875  1304,6751.557,92.016,374.214,372.631,0.0
52661.0,STARLINK-4042,PAYLOAD,2022-06-10 14:00:01,15.63918867,0.0001209,53.2171,183.46400000000003,74.1498,152.3104,-0.0081423,-0.00715785,0.0,0 STARLINK-4042,1 52661U 22053F   22161.58334491 -.00715785  00000-0 -81423-2 0  9996,2 52661  53.2171 183.4640 0001209  74.1498 152.3104 15.63918867  1306,6754.486999999999,92.076,377.168,375.535,0.0
52661.0,STARLINK-4042,PAYLOAD,2022-06-10 22:00:00,15.63406643,0.0001157,53.2174,181.8344,62.5378,241.3897,-0.0082723,-0.00712836,0.0,0 STARLINK-4042,1 52661U 22053F   22161.91667824 -.00712836  00000-0 -82723-2 0  9990,2 52661  53.2174 181.8344 0001157  62.5378 241.3897 15.63406643  4442,6755.962,92.107,378.609,377.045,0.0
52661.0,STARLINK-4042,PAYLOAD,2022-06-11 20:00:01,15.62004644,0.0001217,53.2176,177.3651,50.6837,13.1127,-0.0087467999999999,-0.0071324,0.0,0 STARLINK-4042,1 52661U 22053F   22162.83334491 -.00713240  00000-0 -87468-2 0  9994,2 52661  53.2176 177.3651 0001217  50.6837  13.1127 15.62004644  4591,6760.004,92.189,382.692,381.046,0.0
52661.0,STARLINK-4042,PAYLOAD,2022-06-11 22:00:00,15.61878273,0.0001374,53.2173,176.9587,55.8669,116.7785,-0.0088145,-0.00715085,0.0,0 STARLINK-4042,1 52661U 22053F   22162.91667824 -.00715085  00000-0 -88145-2 0  9994,2 52661  53.2173 176.9587 0001374  55.8669 116.7785 15.61878273  1307,6760.369000000002,92.197,383.163,381.305,0.0
52661.0,STARLINK-4042,PAYLOAD,2022-06-12 14:00:01,15.60859957,0.0001128,53.2172,173.7165,65.5619,256.4963,-0.0091905,-0.00716441,0.0,0 STARLINK-4042,1 52661U 22053F   22163.58334491 -.00716441  00000-0 -91905-2 0  9994,2 52661  53.2172 173.7165 0001128  65.5619 256.4963 15.60859957  1300,6763.309,92.257,385.937,384.411,0.0
52661.0,STARLINK-4042,PAYLOAD,2022-06-12 20:00:01,15.60474944,0.0001244,53.2174,172.4997,58.7356,228.7235,-0.0092825,-0.00713221,0.0,0 STARLINK-4042,1 52661U 22053F   22163.83334491 -.00713221  00000-0 -92825-2 0  9997,2 52661  53.2174 172.4997 0001244  58.7356 228.7235 15.60474944  4746,6764.420999999999,92.28,387.128,385.445,0.0
52661.0,STARLINK-4042,PAYLOAD,2022-06-12 22:00:00,15.60347235,0.0001203,53.2172,172.0944,51.1933,344.6558,-0.0093355,-0.00713712,0.0,0 STARLINK-4042,1 52661U 22053F   22163.91667824 -.00713712  00000-0 -93355-2 0  9999,2 52661  53.2172 172.0944 0001203  51.1933 344.6558 15.60347235  1302,6764.79,92.287,387.469,385.841,0.0
52661.0,STARLINK-4042,PAYLOAD,2022-06-13 14:00:01,15.59330064,0.0001319,53.2172,168.8594,60.3753,121.21,-0.0097605,-0.00717288,0.0,0 STARLINK-4042,1 52661U 22053F   22164.58334491 -.00717288  00000-0 -97605-2 0  9998,2 52661  53.2172 168.8594 0001319  60.3753 121.2100 15.59330064  1308,6767.732,92.347,390.489,388.704,0.0
52661.0,STARLINK-4042,PAYLOAD,2022-06-13 22:00:00,15.58817657,0.0001356,53.2173,167.241,58.1503,195.3868,-0.0098951,-0.00713435,0.0,0 STARLINK-4042,1 52661U 22053F   22164.91667824 -.00713435  00000-0 -98951-2 0  9999,2 52661  53.2173 167.2410 0001356  58.1503 195.3868 15.58817657  4918,6769.215,92.378,391.99800000000016,390.162,0.0
